IRIDIUM 155             
1 43573U 18061E   25117.56979704  .00000022  00000+0  76748-6 0  9992
2 43573  86.3992 230.3039 0001961 103.1090 257.0324 14.34217704353784
IRIDIUM 154             
1 43574U 18061F   25117.41123235  .00000128  00000+0  38590-4 0  9995
2 43574  86.3995 230.4831 0002217  95.7682 264.3767 14.34217305353810
IRIDIUM 163             
1 43575U 18061G   25117.39219697  .00000407  00000+0  13810-3 0  9998
2 43575  86.3992 230.4196 0001984  94.5277 265.6146 14.34215282353782
IRIDIUM 156             
1 43576U 18061H   25117.36683168  .00000547  00000+0  18815-3 0  9999
2 43576  86.3995 230.4370 0002127 105.6917 254.4514 14.34217292353772
IRIDIUM 164             
1 43577U 18061J   25117.34780676 -.00000003  00000+0 -82985-5 0  9990
2 43577  86.3995 230.4788 0002341  98.5766 261.5695 14.34217586353816
IRIDIUM 159             
1 43578U 18061K   25117.59516784  .00000114  00000+0  33795-4 0  9990
2 43578  86.3994 230.3209 0002264  91.5729 268.5726 14.34218214353810
IRIDIUM 180             
1 43922U 19002A   25117.17605256  .00000050  00000+0  10940-4 0  9992
2 43922  86.4007 167.4823 0002229  91.4683 268.6768 14.34218025329360
IRIDIUM 176             
1 43923U 19002B   25117.60442596  .00001768  00000+0  27644-3 0  9992
2 43923  86.6133 167.3018 0001773  91.0504 269.0916 14.72262483338100
IRIDIUM 168             
1 43924U 19002C   25117.51855195  .00000085  00000+0  23147-4 0  9992
2 43924  86.4009 167.4050 0002340  94.3091 265.8373 14.34218056329393
IRIDIUM 173             
1 43925U 19002D   25117.50586633  .00000403  00000+0  13669-3 0  9991
2 43925  86.4006 167.3161 0002066  93.9277 266.2155 14.34217241329375
IRIDIUM 169             
1 43926U 19002E   25117.30873240  .00000599  00000+0  18923-3 0  9997
2 43926  86.4287 198.9629 0001283 136.4657 223.6643 14.38608049330433
IRIDIUM 172             
1 43927U 19002F   25117.49952443  .00000145  00000+0  44838-4 0  9993
2 43927  86.4010 167.3257 0002339  86.4305 273.7159 14.34218662329386
IRIDIUM 175             
1 43928U 19002G   25117.46336254  .00001002  00000+0  15492-3 0  9993
2 43928  86.1472 122.7713 0002498 114.7241 245.4236 14.72247291338078
IRIDIUM 171             
1 43929U 19002H   25117.55026611  .00000171  00000+0  54150-4 0  9998
2 43929  86.4018 167.5645 0002550  99.5518 260.5966 14.34217109329380
IRIDIUM 170             
1 43930U 19002J   25117.40671513  .00001594  00000+0  24894-3 0  9992
2 43930  86.6135 167.3892 0002191 101.6998 258.4465 14.72254716338088
IRIDIUM 167             
1 43931U 19002K   25117.61369184  .00000152  00000+0  47157-4 0  9991
2 43931  86.4010 167.2970 0002407 106.0454 254.1007 14.34217448329399
IRIDIUM 181             
1 56726U 23068S   25117.54608598  .00000843  00000+0  24453-3 0  9991
2 56726  86.4534 230.3672 0002823  99.5418 260.6102 14.43313360102482
IRIDIUM 177             
1 56727U 23068T   25117.50510679  .00002431  00000+0  31648-3 0  9999
2 56727  86.2002 166.1769 0002410  99.3870 260.7624 14.80225377104872
IRIDIUM 174             
1 56728U 23068U   25117.53595265  .00001856  00000+0  28740-3 0  9996
2 56728  86.6138 167.4465 0002031  99.8536 260.2910 14.72706441104866
IRIDIUM 178             
1 56729U 23068V   25117.35899028  .00002650  00000+0  34525-3 0  9992
2 56729  86.6610 199.0300 0002477  91.3176 268.8329 14.80238283104852
IRIDIUM 179             
1 56730U 23068W   25117.35361060  .00002790  00000+0  36362-3 0  9990
2 56730  86.6845 206.7492 0002216 100.6166 259.5305 14.80241106104855
